{
  "type": "FeatureCollection",
  "features": [
    {
      "type": "Feature",
      "properties": {
        "norad_id": 66566,
        "name": "STARLINK-35871",
        "group": "last-30-days",
        "lat": -30.811072917683482,
        "lon": 41.97910194330348,
        "alt_km": 339.6008453714421,
        "timestamp": "2025-12-02T10:50:46.053353+00:00",
        "meta_object_name": "STARLINK-35871",
        "meta_object_id": "2025-268K",
        "meta_epoch": "2025-12-02T04:00:03.998880",
        "meta_mean_motion": 15.78441374,
        "meta_eccentricity": 0.0001854,
        "meta_inclination": 42.9971,
        "meta_ra_of_asc_node": 183.92,
        "meta_arg_of_pericenter": 277.4373,
        "meta_mean_anomaly": 129.0932,
        "meta_ephemeris_type": 0,
        "meta_classification_type": "U",
        "meta_norad_cat_id": 66566,
        "meta_element_set_no": 999,
        "meta_rev_at_epoch": 297,
        "meta_bstar": -0.010138,
        "meta_mean_motion_dot": -0.01583342,
        "meta_mean_motion_ddot": 0,
        "tle_line1": "1 66566U 25268K   25336.16671295 -.01583342  00000+0 -10138-1 0  9999",
        "tle_line2": "2 66566  42.9971 183.9200 0001854 277.4373 129.0932 15.78441374  2975"
      },
      "geometry": {
        "type": "Point",
        "coordinates": [
          41.97910194330348,
          -30.811072917683482
        ]
      }
    },
    {
      "type": "Feature",
      "properties": {
        "norad_id": 66567,
        "name": "STARLINK-35825",
        "group": "last-30-days",
        "lat": -31.867381232284302,
        "lon": 44.027890750963564,
        "alt_km": 339.7072877622413,
        "timestamp": "2025-12-02T10:50:46.053363+00:00",
        "meta_object_name": "STARLINK-35825",
        "meta_object_id": "2025-268L",
        "meta_epoch": "2025-12-02T04:00:03.998880",
        "meta_mean_motion": 15.78402143,
        "meta_eccentricity": 0.0001818,
        "meta_inclination": 42.9972,
        "meta_ra_of_asc_node": 183.9149,
        "meta_arg_of_pericenter": 274.2467,
        "meta_mean_anomaly": 134.3752,
        "meta_ephemeris_type": 0,
        "meta_classification_type": "U",
        "meta_norad_cat_id": 66567,
        "meta_element_set_no": 999,
        "meta_rev_at_epoch": 297,
        "meta_bstar": -0.010212,
        "meta_mean_motion_dot": -0.01590979,
        "meta_mean_motion_ddot": 0,
        "tle_line1": "1 66567U 25268L   25336.16671295 -.01590979  00000+0 -10212-1 0  9997",
        "tle_line2": "2 66567  42.9972 183.9149 0001818 274.2467 134.3752 15.78402143  2978"
      },
      "geometry": {
        "type": "Point",
        "coordinates": [
          44.027890750963564,
          -31.867381232284302
        ]
      }
    },
    {
      "type": "Feature",
      "properties": {
        "norad_id": 66568,
        "name": "STARLINK-35803",
        "group": "last-30-days",
        "lat": -32.921379194281265,
        "lon": 46.190358431189594,
        "alt_km": 340.38511826082595,
        "timestamp": "2025-12-02T10:50:46.053373+00:00",
        "meta_object_name": "STARLINK-35803",
        "meta_object_id": "2025-268M",
        "meta_epoch": "2025-12-02T04:00:03.998880",
        "meta_mean_motion": 15.78402418,
        "meta_eccentricity": 0.0001592,
        "meta_inclination": 42.9969,
        "meta_ra_of_asc_node": 183.9093,
        "meta_arg_of_pericenter": 289.2245,
        "meta_mean_anomaly": 121.5629,
        "meta_ephemeris_type": 0,
        "meta_classification_type": "U",
        "meta_norad_cat_id": 66568,
        "meta_element_set_no": 999,
        "meta_rev_at_epoch": 297,
        "meta_bstar": -0.011195,
        "meta_mean_motion_dot": -0.01759362,
        "meta_mean_motion_ddot": 0,
        "tle_line1": "1 66568U 25268M   25336.16671295 -.01759362  00000+0 -11195-1 0  9992",
        "tle_line2": "2 66568  42.9969 183.9093 0001592 289.2245 121.5629 15.78402418  2978"
      },
      "geometry": {
        "type": "Point",
        "coordinates": [
          46.190358431189594,
          -32.921379194281265
        ]
      }
    },
    {
      "type": "Feature",
      "properties": {
        "norad_id": 66569,
        "name": "STARLINK-35835",
        "group": "last-30-days",
        "lat": -33.85759047388041,
        "lon": 48.22517437943673,
        "alt_km": 340.13173520262535,
        "timestamp": "2025-12-02T10:50:46.053383+00:00",
        "meta_object_name": "STARLINK-35835",
        "meta_object_id": "2025-268N",
        "meta_epoch": "2025-12-02T04:00:03.998880",
        "meta_mean_motion": 15.78330589,
        "meta_eccentricity": 0.0001788,
        "meta_inclination": 42.997,
        "meta_ra_of_asc_node": 183.9043,
        "meta_arg_of_pericenter": 281.3102,
        "meta_mean_anomaly": 131.4524,
        "meta_ephemeris_type": 0,
        "meta_classification_type": "U",
        "meta_norad_cat_id": 66569,
        "meta_element_set_no": 999,
        "meta_rev_at_epoch": 297,
        "meta_bstar": -0.010357,
        "meta_mean_motion_dot": -0.01605987,
        "meta_mean_motion_ddot": 0,
        "tle_line1": "1 66569U 25268N   25336.16671295 -.01605987  00000+0 -10357-1 0  9995",
        "tle_line2": "2 66569  42.9970 183.9043 0001788 281.3102 131.4524 15.78330589  2971"
      },
      "geometry": {
        "type": "Point",
        "coordinates": [
          48.22517437943673,
          -33.85759047388041
        ]
      }
    },
    {
      "type": "Feature",
      "properties": {
        "norad_id": 66570,
        "name": "STARLINK-35834",
        "group": "last-30-days",
        "lat": -34.817254053380246,
        "lon": 50.44210580098565,
        "alt_km": 340.2592210890898,
        "timestamp": "2025-12-02T10:50:46.053395+00:00",
        "meta_object_name": "STARLINK-35834",
        "meta_object_id": "2025-268P",
        "meta_epoch": "2025-12-02T04:00:03.998880",
        "meta_mean_motion": 15.78276801,
        "meta_eccentricity": 0.000178,
        "meta_inclination": 42.9971,
        "meta_ra_of_asc_node": 183.899,
        "meta_arg_of_pericenter": 277.8913,
        "meta_mean_anomaly": 137.0018,
        "meta_ephemeris_type": 0,
        "meta_classification_type": "U",
        "meta_norad_cat_id": 66570,
        "meta_element_set_no": 999,
        "meta_rev_at_epoch": 297,
        "meta_bstar": -0.010452,
        "meta_mean_motion_dot": -0.01615231,
        "meta_mean_motion_ddot": 0,
        "tle_line1": "1 66570U 25268P   25336.16671295 -.01615231  00000+0 -10452-1 0  9996",
        "tle_line2": "2 66570  42.9971 183.8990 0001780 277.8913 137.0018 15.78276801  2972"
      },
      "geometry": {
        "type": "Point",
        "coordinates": [
          50.44210580098565,
          -34.817254053380246
        ]
      }
    },
    {
      "type": "Feature",
      "properties": {
        "norad_id": 66571,
        "name": "STARLINK-35836",
        "group": "last-30-days",
        "lat": -35.733489548508054,
        "lon": 52.70473186011199,
        "alt_km": 340.4722312955191,
        "timestamp": "2025-12-02T10:50:46.053406+00:00",
        "meta_object_name": "STARLINK-35836",
        "meta_object_id": "2025-268Q",
        "meta_epoch": "2025-12-02T04:00:03.998880",
        "meta_mean_motion": 15.78228805,
        "meta_eccentricity": 0.0001717,
        "meta_inclination": 42.9973,
        "meta_ra_of_asc_node": 183.8938,
        "meta_arg_of_pericenter": 277.7712,
        "meta_mean_anomaly": 139.2445,
        "meta_ephemeris_type": 0,
        "meta_classification_type": "U",
        "meta_norad_cat_id": 66571,
        "meta_element_set_no": 999,
        "meta_rev_at_epoch": 297,
        "meta_bstar": -0.010594,
        "meta_mean_motion_dot": -0.01664048,
        "meta_mean_motion_ddot": 0,
        "tle_line1": "1 66571U 25268Q   25336.16671295 -.01664048  00000+0 -10594-1 0  9994",
        "tle_line2": "2 66571  42.9973 183.8938 0001717 277.7712 139.2445 15.78228805  2972"
      },
      "geometry": {
        "type": "Point",
        "coordinates": [
          52.70473186011199,
          -35.733489548508054
        ]
      }
    },
    {
      "type": "Feature",
      "properties": {
        "norad_id": 66572,
        "name": "STARLINK-35870",
        "group": "last-30-days",
        "lat": -36.61125403673453,
        "lon": 55.03221745281017,
        "alt_km": 340.6643084387215,
        "timestamp": "2025-12-02T10:50:46.053418+00:00",
        "meta_object_name": "STARLINK-35870",
        "meta_object_id": "2025-268R",
        "meta_epoch": "2025-12-02T04:00:03.998880",
        "meta_mean_motion": 15.78170004,
        "meta_eccentricity": 0.000175,
        "meta_inclination": 42.9978,
        "meta_ra_of_asc_node": 183.8888,
        "meta_arg_of_pericenter": 278.2405,
        "meta_mean_anomaly": 140.9198,
        "meta_ephemeris_type": 0,
        "meta_classification_type": "U",
        "meta_norad_cat_id": 66572,
        "meta_element_set_no": 999,
        "meta_rev_at_epoch": 297,
        "meta_bstar": -0.010705,
        "meta_mean_motion_dot": -0.01675591,
        "meta_mean_motion_ddot": 0,
        "tle_line1": "1 66572U 25268R   25336.16671295 -.01675591  00000+0 -10705-1 0  9994",
        "tle_line2": "2 66572  42.9978 183.8888 0001750 278.2405 140.9198 15.78170004  2975"
      },
      "geometry": {
        "type": "Point",
        "coordinates": [
          55.03221745281017,
          -36.61125403673453
        ]
      }
    }
  ]
}